NORAD_CAT_ID,OBJECT_NAME,OBJECT_TYPE,EPOCH,MEAN_MOTION,ECCENTRICITY,INCLINATION,RA_OF_ASC_NODE,ARG_OF_PERICENTER,MEAN_ANOMALY,BSTAR,MEAN_MOTION_DOT,MEAN_MOTION_DDOT,TLE_LINE0,TLE_LINE1,TLE_LINE2,SEMIMAJOR_AXIS,PERIOD,APOGEE,PERIGEE,DECAYED
53180.0,STARLINK-4258,PAYLOAD,2024-05-22 09:28:22,15.08855139,0.0001301,53.2154,190.2122,113.0383,247.0746,0.00016416,2.327e-05,0.0,0 STARLINK-4258,1 53180U 22083BA  24143.39470381  .00002327  00000-0  16416-3 0  9996,2 53180  53.2154 190.2122 0001301 113.0383 247.0746 15.08855139102839,6917.834,95.437,540.599,538.799,0.0
53180.0,STARLINK-4258,PAYLOAD,2024-05-23 09:19:09,15.08842179,0.0001265,53.2155,185.7526,101.4192,258.6943,-3.7815e-05,-8.9e-06,0.0,0 STARLINK-4258,1 53180U 22083BA  24144.38830668 -.00000890  00000-0 -37815-4 0  9996,2 53180  53.2155 185.7526 0001265 101.4192 258.6943 15.08842179103620,6917.874,95.437,540.614,538.864,0.0
53180.0,STARLINK-4258,PAYLOAD,2024-05-24 09:09:56,15.08847478,0.000127,53.216,181.2931,95.7507,264.363,9.1605e-05,1.171e-05,0.0,0 STARLINK-4258,1 53180U 22083BA  24145.38190074  .00001171  00000-0  91605-4 0  9995,2 53180  53.2160 181.2931 0001270  95.7507 264.3630 15.08847478103138,6917.858,95.437,540.601,538.844,0.0
53180.0,STARLINK-4258,PAYLOAD,2024-05-25 09:00:44,15.08828146,0.0001242,53.2162,176.832,100.1994,259.9138,1.1414e-05,-1.06e-06,0.0,0 STARLINK-4258,1 53180U 22083BA  24146.37551499 -.00000106  00000-0  11414-4 0  9995,2 53180  53.2162 176.8320 0001242 100.1994 259.9138 15.08828146103923,6917.917,95.438,540.641,538.922,0.0
53180.0,STARLINK-4258,PAYLOAD,2024-05-26 07:16:08,15.08839823,7.91e-05,53.2162,172.6685,69.8894,290.2183,-2.6101e-05,-7.03e-06,0.0,0 STARLINK-4258,1 53180U 22083BA  24147.30287149 -.00000703  00000-0 -26101-4 0  9990,2 53180  53.2162 172.6685 0000791  69.8894 290.2183 15.08839823104067,6917.881,95.438,540.293,539.199,0.0
53180.0,STARLINK-4258,PAYLOAD,2024-05-27 08:42:18,15.08838314,0.000127,53.2161,167.9112,99.4352,260.6783,0.00021762,3.177e-05,0.0,0 STARLINK-4258,1 53180U 22083BA  24148.36271186  .00003177  00000-0  21762-3 0  9994,2 53180  53.2161 167.9112 0001270  99.4352 260.6783 15.08838314104228,6917.886,95.438,540.629,538.872,0.0
53180.0,STARLINK-4258,PAYLOAD,2024-05-27 18:14:37,15.08840337,0.0001302,53.2164,166.1265,98.1908,261.9232,0.00020255,2.937e-05,0.0,0 STARLINK-4258,1 53180U 22083BA  24148.76015130  .00002937  00000-0  20255-3 0  9992,2 53180  53.2164 166.1265 0001302  98.1908 261.9232 15.08840337103646,6917.879,95.438,540.645,538.844,0.0
53180.0,STARLINK-4258,PAYLOAD,2024-05-28 10:08:28,15.08843285,0.0001255,53.2149,163.1534,99.2736,260.8398,9.3875e-05,1.207e-05,0.0,0 STARLINK-4258,1 53180U 22083BA  24149.42254927  .00001207  00000-0  93875-4 0  9993,2 53180  53.2149 163.1534 0001255  99.2736 260.8398 15.08843285104381,6917.87,95.437,540.604,538.867,0.0
53180.0,STARLINK-4258,PAYLOAD,2024-05-29 09:59:15,15.08845135,0.000124,53.2158,158.6929,98.4978,261.6155,5.6605e-05,6.13e-06,0.0,0 STARLINK-4258,1 53180U 22083BA  24150.41614832  .00000613  00000-0  56605-4 0  9999,2 53180  53.2158 158.6929 0001240  98.4978 261.6155 15.08845135103892,6917.865,95.437,540.588,538.872,0.0
53180.0,STARLINK-4258,PAYLOAD,2024-05-30 05:03:52,15.08844837,0.0001209,53.2155,155.1238,102.2985,257.8142,8.5588e-05,1.075e-05,0.0,0 STARLINK-4258,1 53180U 22083BA  24151.21102644  .00001075  00000-0  85588-4 0  9996,2 53180  53.2155 155.1238 0001209 102.2985 257.8142 15.08844837104657,6917.866,95.437,540.567,538.894,0.0
53180.0,STARLINK-4258,PAYLOAD,2024-05-30 09:50:02,15.08844781,0.0001209,53.2156,154.2324,102.0018,258.1109,7.6272e-05,9.26e-06,0.0,0 STARLINK-4258,1 53180U 22083BA  24151.40974601  .00000926  00000-0  76272-4 0  9991,2 53180  53.2156 154.2324 0001209 102.0018 258.1109 15.08844781104047,6917.866,95.437,540.567,538.894,0.0
53180.0,STARLINK-4258,PAYLOAD,2024-05-31 04:54:39,15.08842108,0.0001226,53.2158,150.6627,93.25,266.8633,5.9277e-05,6.56e-06,0.0,0 STARLINK-4258,1 53180U 22083BA  24152.20462795  .00000656  00000-0  59277-4 0  9992,2 53180  53.2158 150.6627 0001226  93.2500 266.8633 15.08842108104804,6917.874,95.437,540.587,538.891,0.0
53180.0,STARLINK-4258,PAYLOAD,2024-05-31 09:40:49,15.08841422,0.0001291,53.2162,149.7718,98.4782,261.6356,4.7592e-05,4.7e-06,0.0,0 STARLINK-4258,1 53180U 22083BA  24152.40334814  .00000470  00000-0  47592-4 0  9995,2 53180  53.2162 149.7718 0001291  98.4782 261.6356 15.08841422104195,6917.876,95.437,540.634,538.848,0.0
53180.0,STARLINK-4258,PAYLOAD,2024-06-01 04:45:27,15.08835887,0.0001321,53.2165,146.203,95.6821,264.4321,9.6783e-06,-1.34e-06,0.0,0 STARLINK-4258,1 53180U 22083BA  24153.19823295 -.00000134  00000-0  96783-5 0  9993,2 53180  53.2165 146.2030 0001321  95.6821 264.4321 15.08835887104959,6917.893,95.438,540.672,538.844,0.0
53180.0,STARLINK-4258,PAYLOAD,2024-06-01 06:20:50,15.08835361,0.0001315,53.2165,145.9052,96.0166,264.0976,1.6279e-05,-2.9e-07,0.0,0 STARLINK-4258,1 53180U 22083BA  24153.26447306 -.00000029  00000-0  16279-4 0  9990,2 53180  53.2165 145.9052 0001315  96.0166 264.0976 15.08835361104329,6917.895,95.438,540.669,538.85,0.0
53180.0,STARLINK-4258,PAYLOAD,2024-06-02 09:22:23,15.0883641,0.0001294,53.2165,140.8516,92.8246,267.2894,5.3264e-05,5.6e-06,0.0,0 STARLINK-4258,1 53180U 22083BA  24154.39055503  .00000560  00000-0  53264-4 0  9993,2 53180  53.2165 140.8516 0001294  92.8246 267.2894 15.08836410105137,6917.891,95.438,540.652,538.861,0.0
53180.0,STARLINK-4258,PAYLOAD,2024-06-02 15:43:56,15.08838492,0.0001303,53.2167,139.6622,92.4219,267.6923,7.3027e-05,8.74e-06,0.0,0 STARLINK-4258,1 53180U 22083BA  24154.65551398  .00000874  00000-0  73027-4 0  9992,2 53180  53.2167 139.6622 0001303  92.4219 267.6923 15.08838492104532,6917.885,95.438,540.651,538.849,0.0
53180.0,STARLINK-4258,PAYLOAD,2024-06-03 07:37:48,15.08836759,0.0001368,53.2172,136.6894,95.3936,264.7213,9.5223e-05,1.228e-05,0.0,0 STARLINK-4258,1 53180U 22083BA  24155.31791733  .00001228  00000-0  95223-4 0  9991,2 53180  53.2172 136.6894 0001368  95.3936 264.7213 15.08836759104630,6917.89,95.438,540.702,538.809,0.0
53180.0,STARLINK-4258,PAYLOAD,2024-06-03 15:34:43,15.08843225,0.0001385,53.2176,135.2028,94.4971,265.618,0.00012862,1.76e-05,0.0,0 STARLINK-4258,1 53180U 22083BA  24155.64911296  .00001760  00000-0  12862-3 0  9993,2 53180  53.2176 135.2028 0001385  94.4971 265.6180 15.08843225105322,6917.871,95.437,540.694,538.777,0.0
53180.0,STARLINK-4258,PAYLOAD,2024-06-04 02:42:25,15.088295,0.0001441,53.2186,133.122,95.3138,264.8019,0.00018334,2.63e-05,0.0,0 STARLINK-4258,1 53180U 22083BA  24156.11279976  .00002630  00000-0  18334-3 0  9995,2 53180  53.2186 133.1220 0001441  95.3138 264.8019 15.08829500105391,6917.912,95.438,540.774,538.781,0.0
53180.0,STARLINK-4258,PAYLOAD,2024-06-04 04:17:49,15.08828388,0.0001479,53.2185,132.8247,98.2736,261.8424,0.00020993,3.054e-05,0.0,0 STARLINK-4258,1 53180U 22083BA  24156.17904012  .00003054  00000-0  20993-3 0  9992,2 53180  53.2185 132.8247 0001479  98.2736 261.8424 15.08828388104762,6917.916,95.438,540.804,538.758,0.0
53180.0,STARLINK-4258,PAYLOAD,2024-06-04 15:25:30,15.08848558,0.0001666,53.2172,130.7409,82.6631,277.4551,0.00011485,1.541e-05,0.0,0 STARLINK-4258,1 53180U 22083BA  24156.64271100  .00001541  00000-0  11485-3 0  9994,2 53180  53.2172 130.7409 0001666  82.6631 277.4551 15.08848558105478,6917.854,95.437,540.872,538.567,0.0
53180.0,STARLINK-4258,PAYLOAD,2024-06-04 21:47:02,15.08845054,0.0001688,53.2169,129.5541,84.6328,275.4857,0.00011258,1.504e-05,0.0,0 STARLINK-4258,1 53180U 22083BA  24156.90767271  .00001504  00000-0  11258-3 0  9999,2 53180  53.2169 129.5541 0001688  84.6328 275.4857 15.08845054104874,6917.865,95.437,540.898,538.562,0.0
53180.0,STARLINK-4258,PAYLOAD,2024-06-05 04:08:36,15.08838183,0.000161,53.2176,128.3627,82.4964,277.6211,6.9307e-07,-2.77e-06,0.0,0 STARLINK-4258,1 53180U 22083BA  24157.17264014 -.00000277  00000-0  69307-6 0  9994,2 53180  53.2176 128.3627 0001610  82.4964 277.6211 15.08838183105550,6917.886,95.438,540.865,538.637,0.0
53180.0,STARLINK-4258,PAYLOAD,2024-06-05 05:43:59,15.08839069,0.0001542,53.2172,128.0654,82.1418,277.9749,3.8061e-06,-2.27e-06,0.0,0 STARLINK-4258,1 53180U 22083BA  24157.23887915 -.00000227  00000-0  38061-5 0  9999,2 53180  53.2172 128.0654 0001542  82.1418 277.9749 15.08839069104921,6917.883,95.438,540.815,538.681,0.0
53180.0,STARLINK-4258,PAYLOAD,2024-06-05 15:16:17,15.08846681,0.0001617,53.2179,126.2819,84.4455,275.6722,5.4831e-05,5.85e-06,0.0,0 STARLINK-4258,1 53180U 22083BA  24157.63631241  .00000585  00000-0  54831-4 0  9990,2 53180  53.2179 126.2819 0001617  84.4455 275.6722 15.08846681105622,6917.86,95.437,540.844,538.606,0.0
53180.0,STARLINK-4258,PAYLOAD,2024-06-05 21:37:50,15.08830149,0.0001511,53.2163,125.0897,88.6405,271.476,-2.127e-05,-6.26e-06,0.0,0 STARLINK-4258,1 53180U 22083BA  24157.90128449 -.00000626  00000-0 -21270-4 0  9990,2 53180  53.2163 125.0897 0001511  88.6405 271.4760 15.08830149105024,6917.91,95.438,540.821,538.73,0.0
53180.0,STARLINK-4258,PAYLOAD,2024-06-06 03:59:23,15.0883269,0.0001386,53.2171,123.9003,95.0349,265.0801,2.137e-05,5.2e-07,0.0,0 STARLINK-4258,1 53180U 22083BA  24158.16624185  .00000052  00000-0  21370-4 0  9999,2 53180  53.2171 123.9003 0001386  95.0349 265.0801 15.08832690105701,6917.903,95.438,540.727,538.809,0.0
53180.0,STARLINK-4258,PAYLOAD,2024-06-06 21:28:37,15.08839561,0.0001425,53.2167,120.6303,90.1723,269.9433,0.00010086,1.318e-05,0.0,0 STARLINK-4258,1 53180U 22083BA  24158.89487565  .00001318  00000-0  10086-3 0  9995,2 53180  53.2167 120.6303 0001425  90.1723 269.9433 15.08839561105819,6917.882,95.438,540.733,538.761,0.0
53180.0,STARLINK-4258,PAYLOAD,2024-06-07 21:19:24,15.08836019,0.0001451,53.2169,116.1697,96.4577,263.6581,0.00011539,1.549e-05,0.0,0 STARLINK-4258,1 53180U 22083BA  24159.88847822  .00001549  00000-0  11539-3 0  9991,2 53180  53.2169 116.1697 0001451  96.4577 263.6581 15.08836019105328,6917.893,95.438,540.761,538.754,0.0
